CCSDS_OMM_VERS = 2.0
CREATION_DATE  = 
ORIGINATOR     = 

OBJECT_NAME    = COSMOS 2228
OBJECT_ID      = 1992-094A
CENTER_NAME    = EARTH
REF_FRAME      = TEME
TIME_SYSTEM    = UTC
MEAN_ELEMENT_THEORY = SGP/SGP4

EPOCH          = 2025-11-25T02:33:57.475872
MEAN_MOTION    = 14.96609169
ECCENTRICITY   = .0016486
INCLINATION    = 82.5176
RA_OF_ASC_NODE = 337.4064
ARG_OF_PERICENTER = 296.5634
MEAN_ANOMALY   = 63.3898

EPHEMERIS_TYPE = 0
CLASSIFICATION_TYPE = U
NORAD_CAT_ID   = 22286
ELEMENT_SET_NO = 999
REV_AT_EPOCH   = 76041
BSTAR          = .28146E-3
MEAN_MOTION_DOT = .3239E-4
MEAN_MOTION_DDOT = 0

CCSDS_OMM_VERS = 2.0
CREATION_DATE  = 
ORIGINATOR     = 

OBJECT_NAME    = SL-16 R/B
OBJECT_ID      = 1993-016B
CENTER_NAME    = EARTH
REF_FRAME      = TEME
TIME_SYSTEM    = UTC
MEAN_ELEMENT_THEORY = SGP/SGP4

EPOCH          = 2025-11-25T00:51:18.192672
MEAN_MOTION    = 14.15288596
ECCENTRICITY   = .0008298
INCLINATION    = 71.0087
RA_OF_ASC_NODE = 74.9851
ARG_OF_PERICENTER = 130.6571
MEAN_ANOMALY   = 229.5274

EPHEMERIS_TYPE = 0
CLASSIFICATION_TYPE = U
NORAD_CAT_ID   = 22566
ELEMENT_SET_NO = 999
REV_AT_EPOCH   = 68736
BSTAR          = .83146E-4
MEAN_MOTION_DOT = .114E-5
MEAN_MOTION_DDOT = 0

CCSDS_OMM_VERS = 2.0
CREATION_DATE  = 
ORIGINATOR     = 

OBJECT_NAME    = COSMOS 2242
OBJECT_ID      = 1993-024A
CENTER_NAME    = EARTH
REF_FRAME      = TEME
TIME_SYSTEM    = UTC
MEAN_ELEMENT_THEORY = SGP/SGP4

EPOCH          = 2025-11-25T02:41:19.260672
MEAN_MOTION    = 14.96000789
ECCENTRICITY   = .0014937
INCLINATION    = 82.5198
RA_OF_ASC_NODE = 6.6922
ARG_OF_PERICENTER = 299.5679
MEAN_ANOMALY   = 60.4053

EPHEMERIS_TYPE = 0
CLASSIFICATION_TYPE = U
NORAD_CAT_ID   = 22626
ELEMENT_SET_NO = 999
REV_AT_EPOCH   = 76475
BSTAR          = .24779E-3
MEAN_MOTION_DOT = .2809E-4
MEAN_MOTION_DDOT = 0

CCSDS_OMM_VERS = 2.0
CREATION_DATE  = 
ORIGINATOR     = 

OBJECT_NAME    = SL-16 R/B
OBJECT_ID      = 1993-059B
CENTER_NAME    = EARTH
REF_FRAME      = TEME
TIME_SYSTEM    = UTC
MEAN_ELEMENT_THEORY = SGP/SGP4

EPOCH          = 2025-11-25T02:04:41.145312
MEAN_MOTION    = 14.17208097
ECCENTRICITY   = .0016938
INCLINATION    = 70.9898
RA_OF_ASC_NODE = 231.7099
ARG_OF_PERICENTER = 1.9160
MEAN_ANOMALY   = 358.2025

EPHEMERIS_TYPE = 0
CLASSIFICATION_TYPE = U
NORAD_CAT_ID   = 22803
ELEMENT_SET_NO = 999
REV_AT_EPOCH   = 66471
BSTAR          = -.52839E-4
MEAN_MOTION_DOT = -.155E-5
MEAN_MOTION_DDOT = 0

CCSDS_OMM_VERS = 2.0
CREATION_DATE  = 
ORIGINATOR     = 

OBJECT_NAME    = ARIANE 40 R/B
OBJECT_ID      = 1993-061H
CENTER_NAME    = EARTH
REF_FRAME      = TEME
TIME_SYSTEM    = UTC
MEAN_ELEMENT_THEORY = SGP/SGP4

EPOCH          = 2025-11-25T02:09:32.124096
MEAN_MOTION    = 14.32784774
ECCENTRICITY   = .0009906
INCLINATION    = 98.5097
RA_OF_ASC_NODE = 34.9395
ARG_OF_PERICENTER = 229.6585
MEAN_ANOMALY   = 130.3735

EPHEMERIS_TYPE = 0
CLASSIFICATION_TYPE = U
NORAD_CAT_ID   = 22830
ELEMENT_SET_NO = 999
REV_AT_EPOCH   = 67912
BSTAR          = .13167E-3
MEAN_MOTION_DOT = .316E-5
MEAN_MOTION_DDOT = 0

CCSDS_OMM_VERS = 2.0
CREATION_DATE  = 
ORIGINATOR     = 

OBJECT_NAME    = COSMOS 2278
OBJECT_ID      = 1994-023A
CENTER_NAME    = EARTH
REF_FRAME      = TEME
TIME_SYSTEM    = UTC
MEAN_ELEMENT_THEORY = SGP/SGP4

EPOCH          = 2025-11-25T03:18:02.815776
MEAN_MOTION    = 14.14348771
ECCENTRICITY   = .0009346
INCLINATION    = 71.0558
RA_OF_ASC_NODE = 33.8365
ARG_OF_PERICENTER = 203.4062
MEAN_ANOMALY   = 156.6636

EPHEMERIS_TYPE = 0
CLASSIFICATION_TYPE = U
NORAD_CAT_ID   = 23087
ELEMENT_SET_NO = 999
REV_AT_EPOCH   = 63002
BSTAR          = .13806E-3
MEAN_MOTION_DOT = .217E-5
MEAN_MOTION_DDOT = 0

CCSDS_OMM_VERS = 2.0
CREATION_DATE  = 
ORIGINATOR     = 

OBJECT_NAME    = SL-16 R/B
OBJECT_ID      = 1994-023B
CENTER_NAME    = EARTH
REF_FRAME      = TEME
TIME_SYSTEM    = UTC
MEAN_ELEMENT_THEORY = SGP/SGP4

EPOCH          = 2025-11-25T02:10:07.847040
MEAN_MOTION    = 14.14992070
ECCENTRICITY   = .0001134
INCLINATION    = 70.9990
RA_OF_ASC_NODE = 290.5496
ARG_OF_PERICENTER = 115.4244
MEAN_ANOMALY   = 244.6996

EPHEMERIS_TYPE = 0
CLASSIFICATION_TYPE = U
NORAD_CAT_ID   = 23088
ELEMENT_SET_NO = 999
REV_AT_EPOCH   = 63129
BSTAR          = .10587E-3
MEAN_MOTION_DOT = .157E-5
MEAN_MOTION_DDOT = 0

CCSDS_OMM_VERS = 2.0
CREATION_DATE  = 
ORIGINATOR     = 

OBJECT_NAME    = SL-16 R/B
OBJECT_ID      = 1994-074B
CENTER_NAME    = EARTH
REF_FRAME      = TEME
TIME_SYSTEM    = UTC
MEAN_ELEMENT_THEORY = SGP/SGP4

EPOCH          = 2025-11-25T02:05:35.234304
MEAN_MOTION    = 14.79259994
ECCENTRICITY   = .0006208
INCLINATION    = 97.7224
RA_OF_ASC_NODE = 359.0919
ARG_OF_PERICENTER = 189.5477
MEAN_ANOMALY   = 227.8757

EPHEMERIS_TYPE = 0
CLASSIFICATION_TYPE = U
NORAD_CAT_ID   = 23343
ELEMENT_SET_NO = 999
REV_AT_EPOCH   = 67178
BSTAR          = .89863E-4
MEAN_MOTION_DOT = .619E-5
MEAN_MOTION_DDOT = 0

CCSDS_OMM_VERS = 2.0
CREATION_DATE  = 
ORIGINATOR     = 

OBJECT_NAME    = SL-16 R/B
OBJECT_ID      = 1994-077B
CENTER_NAME    = EARTH
REF_FRAME      = TEME
TIME_SYSTEM    = UTC
MEAN_ELEMENT_THEORY = SGP/SGP4

EPOCH          = 2025-11-25T02:42:20.728224
MEAN_MOTION    = 14.15547435
ECCENTRICITY   = .000454
INCLINATION    = 70.9821
RA_OF_ASC_NODE = 212.4953
ARG_OF_PERICENTER = 298.3233
MEAN_ANOMALY   = 61.7432

EPHEMERIS_TYPE = 0
CLASSIFICATION_TYPE = U
NORAD_CAT_ID   = 23405
ELEMENT_SET_NO = 999
REV_AT_EPOCH   = 60143
BSTAR          = -.80551E-4
MEAN_MOTION_DOT = -.206E-5
MEAN_MOTION_DDOT = 0

CCSDS_OMM_VERS = 2.0
CREATION_DATE  = 
ORIGINATOR     = 

OBJECT_NAME    = ARIANE 40+ R/B
OBJECT_ID      = 1995-021B
CENTER_NAME    = EARTH
REF_FRAME      = TEME
TIME_SYSTEM    = UTC
MEAN_ELEMENT_THEORY = SGP/SGP4

EPOCH          = 2025-11-25T03:40:34.305312
MEAN_MOTION    = 14.39675554
ECCENTRICITY   = .0007922
INCLINATION    = 98.4670
RA_OF_ASC_NODE = 36.9528
ARG_OF_PERICENTER = 95.7814
MEAN_ANOMALY   = 325.5761

EPHEMERIS_TYPE = 0
CLASSIFICATION_TYPE = U
NORAD_CAT_ID   = 23561
ELEMENT_SET_NO = 999
REV_AT_EPOCH   = 60420
BSTAR          = .14397E-3
MEAN_MOTION_DOT = .407E-5
MEAN_MOTION_DDOT = 0

CCSDS_OMM_VERS = 2.0
CREATION_DATE  = 
ORIGINATOR     = 

OBJECT_NAME    = SL-16 R/B
OBJECT_ID      = 1995-058B
CENTER_NAME    = EARTH
REF_FRAME      = TEME
TIME_SYSTEM    = UTC
MEAN_ELEMENT_THEORY = SGP/SGP4

EPOCH          = 2025-11-24T14:52:37.179264
MEAN_MOTION    = 14.15474558
ECCENTRICITY   = .00149159
INCLINATION    = 71.0224
RA_OF_ASC_NODE = 40.8464
ARG_OF_PERICENTER = 278.2433
MEAN_ANOMALY   = 81.6998

EPHEMERIS_TYPE = 0
CLASSIFICATION_TYPE = U
NORAD_CAT_ID   = 23705
ELEMENT_SET_NO = 999
REV_AT_EPOCH   = 55298
BSTAR          = -.894394E-5
MEAN_MOTION_DOT = -.65E-6
MEAN_MOTION_DDOT = 0

CCSDS_OMM_VERS = 2.0
CREATION_DATE  = 
ORIGINATOR     = 

OBJECT_NAME    = SL-16 R/B
OBJECT_ID      = 1996-051B
CENTER_NAME    = EARTH
REF_FRAME      = TEME
TIME_SYSTEM    = UTC
MEAN_ELEMENT_THEORY = SGP/SGP4

EPOCH          = 2025-11-25T03:17:32.349408
MEAN_MOTION    = 14.12394185
ECCENTRICITY   = .0018803
INCLINATION    = 70.7607
RA_OF_ASC_NODE = 36.5427
ARG_OF_PERICENTER = 283.2228
MEAN_ANOMALY   = 76.6794

EPHEMERIS_TYPE = 0
CLASSIFICATION_TYPE = U
NORAD_CAT_ID   = 24298
ELEMENT_SET_NO = 999
REV_AT_EPOCH   = 50688
BSTAR          = .21035E-4
MEAN_MOTION_DOT = -.11E-6
MEAN_MOTION_DDOT = 0

