COSMOS 2228             
1 22286U 92094A   25329.10691523  .00003239  00000+0  28146-3 0  9992
2 22286  82.5176 337.4064 0016486 296.5634  63.3898 14.96609169760414
SL-16 R/B               
1 22566U 93016B   25329.03562723  .00000114  00000+0  83146-4 0  9990
2 22566  71.0087  74.9851 0008298 130.6571 229.5274 14.15288596687360
COSMOS 2242             
1 22626U 93024A   25329.11202848  .00002809  00000+0  24779-3 0  9993
2 22626  82.5198   6.6922 0014937 299.5679  60.4053 14.96000789764750
SL-16 R/B               
1 22803U 93059B   25329.08658733 -.00000155  00000+0 -52839-4 0  9995
2 22803  70.9898 231.7099 0016938   1.9160 358.2025 14.17208097664711
ARIANE 40 R/B           
1 22830U 93061H   25329.08995514  .00000316  00000+0  13167-3 0  9996
2 22830  98.5097  34.9395 0009906 229.6585 130.3735 14.32784774679123
COSMOS 2278             
1 23087U 94023A   25329.13753259  .00000217  00000+0  13806-3 0  9994
2 23087  71.0558  33.8365 0009346 203.4062 156.6636 14.14348771630029
SL-16 R/B               
1 23088U 94023B   25329.09036860  .00000157  00000+0  10587-3 0  9998
2 23088  70.9990 290.5496 0001134 115.4244 244.6996 14.14992070631290
SL-16 R/B               
1 23343U 94074B   25329.08721336  .00000619  00000+0  89863-4 0  9993
2 23343  97.7224 359.0919 0006208 189.5477 227.8757 14.79259994671787
SL-16 R/B               
1 23405U 94077B   25329.11273991 -.00000206  00000+0 -80551-4 0  9997
2 23405  70.9821 212.4953 0004540 298.3233  61.7432 14.15547435601438
ARIANE 40+ R/B          
1 23561U 95021B   25329.15317483  .00000407  00000+0  14397-3 0  9994
2 23561  98.4670  36.9528 0007922  95.7814 325.5761 14.39675554604200
SL-16 R/B               
1 23705U 95058B   25328.61987476 -.00000065  00000+0 -89439-5 0  9992
2 23705  71.0224  40.8464 0014915 278.2433  81.6998 14.15474558552984
SL-16 R/B               
1 24298U 96051B   25329.13717997 -.00000011  00000+0  21035-4 0  9998
2 24298  70.7607  36.5427 0018803 283.2228  76.6794 14.12394185506882
